{
  "schema": "int-temerity-real-tle-snapshot/v1",
  "source": "celestrak",
  "group": "STARLINK",
  "format": "celestrak-gp-json",
  "source_url": "https://celestrak.org/NORAD/elements/gp.php?NAME=STARLINK&FORMAT=JSON",
  "downloaded_at": "2026-06-26T09:50:33.467Z",
  "generated_at": "2026-06-26T09:50:44.363Z",
  "fingerprint": "77a8ac15",
  "shell_id": "starlink-real-43deg-490km",
  "catalog_count": 10658,
  "shell_count": 3264,
  "selected_count": 1584,
  "mean_altitude_km": 490.2,
  "mean_inclination_deg": 43.0017,
  "mean_mean_motion_rev_per_day": 15.27576648,
  "layout": {
    "planes": 72,
    "satellites_per_plane": 22,
    "selection_strategy": "largest-shell-raan-clusters-even-slot-sampling",
    "raan_cluster_threshold_deg": 1.5
  },
  "satellites": [
    {
      "satellite_id": "P04-S07",
      "norad_id": 62193,
      "satellite_name": "STARLINK-32688",
      "cospar_id": "2024-229B",
      "shell_id": "starlink-real-43deg-490km",
      "plane_id": 3,
      "slot_id": 6,
      "epoch": "2026-06-25T23:44:21.117120",
      "inclination": 43.0012,
      "raan": 19.1644,
      "eccentricity": 0.0001472,
      "argument_of_perigee": 263.913,
      "mean_anomaly": 96.15539999999999,
      "mean_motion": 15.27610272,
      "bstar": 0.00088901,
      "status": "active",
      "raw_omm": {
        "OBJECT_NAME": "STARLINK-32688",
        "OBJECT_ID": "2024-229B",
        "EPOCH": "2026-06-25T23:44:21.117120",
        "MEAN_MOTION": 15.27610272,
        "ECCENTRICITY": 0.0001472,
        "INCLINATION": 43.0012,
        "RA_OF_ASC_NODE": 19.1644,
        "ARG_OF_PERICENTER": 263.913,
        "MEAN_ANOMALY": 96.1554,
        "EPHEMERIS_TYPE": 0,
        "CLASSIFICATION_TYPE": "U",
        "NORAD_CAT_ID": 62193,
        "ELEMENT_SET_NO": 999,
        "REV_AT_EPOCH": 8712,
        "BSTAR": 0.00088901,
        "MEAN_MOTION_DOT": 0.00024305,
        "MEAN_MOTION_DDOT": 0
      },
      "source": "celestrak",
      "source_url": "https://celestrak.org/NORAD/elements/gp.php?NAME=STARLINK&FORMAT=JSON",
      "catalog_fingerprint": "77a8ac15"
    },
    {
      "satellite_id": "P04-S08",
      "norad_id": 67830,
      "satellite_name": "STARLINK-36611",
      "cospar_id": "2026-033K",
      "shell_id": "starlink-real-43deg-490km",
      "plane_id": 3,
      "slot_id": 7,
      "epoch": "2026-06-25T14:38:37.620096",
      "inclination": 43.0054,
      "raan": 18.046299999999974,
      "eccentricity": 0.0001373,
      "argument_of_perigee": 276.2758,
      "mean_anomaly": 83.7937,
      "mean_motion": 15.27598461,
      "bstar": 0.00089284,
      "status": "active",
      "raw_omm": {
        "OBJECT_NAME": "STARLINK-36611",
        "OBJECT_ID": "2026-033K",
        "EPOCH": "2026-06-25T14:38:37.620096",
        "MEAN_MOTION": 15.27598461,
        "ECCENTRICITY": 0.0001373,
        "INCLINATION": 43.0054,
        "RA_OF_ASC_NODE": 18.0463,
        "ARG_OF_PERICENTER": 276.2758,
        "MEAN_ANOMALY": 83.7937,
        "EPHEMERIS_TYPE": 0,
        "CLASSIFICATION_TYPE": "U",
        "NORAD_CAT_ID": 67830,
        "ELEMENT_SET_NO": 999,
        "REV_AT_EPOCH": 2117,
        "BSTAR": 0.00089284,
        "MEAN_MOTION_DOT": 0.00024402,
        "MEAN_MOTION_DDOT": 0
      },
      "source": "celestrak",
      "source_url": "https://celestrak.org/NORAD/elements/gp.php?NAME=STARLINK&FORMAT=JSON",
      "catalog_fingerprint": "77a8ac15"
    },
    {
      "satellite_id": "P04-S09",
      "norad_id": 59855,
      "satellite_name": "STARLINK-31882",
      "cospar_id": "2024-097W",
      "shell_id": "starlink-real-43deg-490km",
      "plane_id": 3,
      "slot_id": 8,
      "epoch": "2026-06-25T14:51:31.516992",
      "inclination": 43.0051,
      "raan": 17.859699999999975,
      "eccentricity": 0.0001334,
      "argument_of_perigee": 267.3084,
      "mean_anomaly": 92.76150000000001,
      "mean_motion": 15.27574528,
      "bstar": 0.000018917,
      "status": "active",
      "raw_omm": {
        "OBJECT_NAME": "STARLINK-31882",
        "OBJECT_ID": "2024-097W",
        "EPOCH": "2026-06-25T14:51:31.516992",
        "MEAN_MOTION": 15.27574528,
        "ECCENTRICITY": 0.0001334,
        "INCLINATION": 43.0051,
        "RA_OF_ASC_NODE": 17.8597,
        "ARG_OF_PERICENTER": 267.3084,
        "MEAN_ANOMALY": 92.7615,
        "EPHEMERIS_TYPE": 0,
        "CLASSIFICATION_TYPE": "U",
        "NORAD_CAT_ID": 59855,
        "ELEMENT_SET_NO": 999,
        "REV_AT_EPOCH": 11850,
        "BSTAR": 0.000018917,
        "MEAN_MOTION_DOT": 0.00000258,
        "MEAN_MOTION_DDOT": 0
      },
      "source": "celestrak",
      "source_url": "https://celestrak.org/NORAD/elements/gp.php?NAME=STARLINK&FORMAT=JSON",
      "catalog_fingerprint": "77a8ac15"
    },
    {
      "satellite_id": "P04-S10",
      "norad_id": 62211,
      "satellite_name": "STARLINK-32642",
      "cospar_id": "2024-229V",
      "shell_id": "starlink-real-43deg-490km",
      "plane_id": 3,
      "slot_id": 9,
      "epoch": "2026-06-25T23:12:53.957088",
      "inclination": 43.001,
      "raan": 18.993299999999977,
      "eccentricity": 0.0001316,
      "argument_of_perigee": 285.12750000000005,
      "mean_anomaly": 74.94310000000002,
      "mean_motion": 15.27605828,
      "bstar": 0.00072342,
      "status": "active",
      "raw_omm": {
        "OBJECT_NAME": "STARLINK-32642",
        "OBJECT_ID": "2024-229V",
        "EPOCH": "2026-06-25T23:12:53.957088",
        "MEAN_MOTION": 15.27605828,
        "ECCENTRICITY": 0.0001316,
        "INCLINATION": 43.001,
        "RA_OF_ASC_NODE": 18.9933,
        "ARG_OF_PERICENTER": 285.1275,
        "MEAN_ANOMALY": 74.9431,
        "EPHEMERIS_TYPE": 0,
        "CLASSIFICATION_TYPE": "U",
        "NORAD_CAT_ID": 62211,
        "ELEMENT_SET_NO": 999,
        "REV_AT_EPOCH": 8712,
        "BSTAR": 0.00072342,
        "MEAN_MOTION_DOT": 0.00019714,
        "MEAN_MOTION_DDOT": 0
      },
      "source": "celestrak",
      "source_url": "https://celestrak.org/NORAD/elements/gp.php?NAME=STARLINK&FORMAT=JSON",
      "catalog_fingerprint": "77a8ac15"
    },
    {
      "satellite_id": "P04-S11",
      "norad_id": 62203,
      "satellite_name": "STARLINK-32665",
      "cospar_id": "2024-229M",
      "shell_id": "starlink-real-43deg-490km",
      "plane_id": 3,
      "slot_id": 10,
      "epoch": "2026-06-25T23:38:48.438240",
      "inclination": 42.9982,
      "raan": 19.13409999999999,
      "eccentricity": 0.000126,
      "argument_of_perigee": 285.6509,
      "mean_anomaly": 74.4203,
      "mean_motion": 15.2758966,
      "bstar": 0.0007981,
      "status": "active",
      "raw_omm": {
        "OBJECT_NAME": "STARLINK-32665",
        "OBJECT_ID": "2024-229M",
        "EPOCH": "2026-06-25T23:38:48.438240",
        "MEAN_MOTION": 15.2758966,
        "ECCENTRICITY": 0.000126,
        "INCLINATION": 42.9982,
        "RA_OF_ASC_NODE": 19.1341,
        "ARG_OF_PERICENTER": 285.6509,
        "MEAN_ANOMALY": 74.4203,
        "EPHEMERIS_TYPE": 0,
        "CLASSIFICATION_TYPE": "U",
        "NORAD_CAT_ID": 62203,
        "ELEMENT_SET_NO": 999,
        "REV_AT_EPOCH": 8712,
        "BSTAR": 0.0007981,
        "MEAN_MOTION_DOT": 0.00021771,
        "MEAN_MOTION_DDOT": 0
      },
      "source": "celestrak",
      "source_url": "https://celestrak.org/NORAD/elements/gp.php?NAME=STARLINK&FORMAT=JSON",
      "catalog_fingerprint": "77a8ac15"
    },
    {
      "satellite_id": "P04-S12",
      "norad_id": 67837,
      "satellite_name": "STARLINK-36649",
      "cospar_id": "2026-033S",
      "shell_id": "starlink-real-43deg-490km",
      "plane_id": 3,
      "slot_id": 11,
      "epoch": "2026-06-25T14:21:58.003200",
      "inclination": 43.0025,
      "raan": 17.955100000000016,
      "eccentricity": 0.0001132,
      "argument_of_perigee": 263.4381000000001,
      "mean_anomaly": 96.63420000000002,
      "mean_motion": 15.27610345,
      "bstar": 0.0010108,
      "status": "active",
      "raw_omm": {
        "OBJECT_NAME": "STARLINK-36649",
        "OBJECT_ID": "2026-033S",
        "EPOCH": "2026-06-25T14:21:58.003200",
        "MEAN_MOTION": 15.27610345,
        "ECCENTRICITY": 0.0001132,
        "INCLINATION": 43.0025,
        "RA_OF_ASC_NODE": 17.9551,
        "ARG_OF_PERICENTER": 263.4381,
        "MEAN_ANOMALY": 96.6342,
        "EPHEMERIS_TYPE": 0,
        "CLASSIFICATION_TYPE": "U",
        "NORAD_CAT_ID": 67837,
        "ELEMENT_SET_NO": 999,
        "REV_AT_EPOCH": 2117,
        "BSTAR": 0.0010108,
        "MEAN_MOTION_DOT": 0.00027684,
        "MEAN_MOTION_DDOT": 0
      },
      "source": "celestrak",
      "source_url": "https://celestrak.org/NORAD/elements/gp.php?NAME=STARLINK&FORMAT=JSON",
      "catalog_fingerprint": "77a8ac15"
    }
  ]
}