STARLINK-31882          
1 59855U 24097W   26176.61911478  .00000258  00000+0  18917-4 0  9997
2 59855  43.0051  17.8597 0001334 267.3084  92.7615 15.27574528118506
STARLINK-32688          
1 62193U 24229B   26176.98913330  .00024305  00000+0  88901-3 0  9990
2 62193  43.0012  19.1644 0001472 263.9130  96.1554 15.27610272 87127
STARLINK-32665          
1 62203U 24229M   26176.98528285  .00021771  00000+0  79810-3 0  9996
2 62203  42.9982  19.1341 0001260 285.6509  74.4203 15.27589660 87129
STARLINK-32642          
1 62211U 24229V   26176.96729117  .00019714  00000+0  72342-3 0  9997
2 62211  43.0010  18.9933 0001316 285.1275  74.9431 15.27605828 87126
STARLINK-36611          
1 67830U 26033K   26176.61015764  .00024402  00000+0  89284-3 0  9995
2 67830  43.0054  18.0463 0001373 276.2758  83.7937 15.27598461 21171
STARLINK-36649          
1 67837U 26033S   26176.59858800  .00027684  00000+0  10108-2 0  9998
2 67837  43.0025  17.9551 0001132 263.4381  96.6342 15.27610345 21174
